NORAD_CAT_ID,OBJECT_NAME,OBJECT_TYPE,EPOCH,MEAN_MOTION,ECCENTRICITY,INCLINATION,RA_OF_ASC_NODE,ARG_OF_PERICENTER,MEAN_ANOMALY,BSTAR,MEAN_MOTION_DOT,MEAN_MOTION_DDOT,TLE_LINE0,TLE_LINE1,TLE_LINE2,SEMIMAJOR_AXIS,PERIOD,APOGEE,PERIGEE,DECAYED
53965.0,STARLINK-4578,PAYLOAD,2024-03-29 05:17:32,15.08851419,0.0001784,53.214,173.6638,90.9647,269.1549,0.00094492,0.00014787,0.0,0 STARLINK-4578,1 53965U 22125B   24089.22051521  .00014787  00000-0  94492-3 0  9999,2 53965  53.2140 173.6638 0001784  90.9647 269.1549 15.08851419 82136,6917.845,95.437,540.945,538.476,0.0
53965.0,STARLINK-4578,PAYLOAD,2024-03-29 11:39:04,15.08856082,0.0001412,53.2137,172.4748,91.9851,268.1302,0.00070251,0.00010915,0.0,0 STARLINK-4578,1 53965U 22125B   24089.48547132  .00010915  00000-0  70251-3 0  9991,2 53965  53.2137 172.4748 0001412  91.9851 268.1302 15.08856082 82101,6917.831,95.437,540.673,538.719,0.0
53965.0,STARLINK-4578,PAYLOAD,2024-03-29 22:46:46,15.08853117,0.0001203,53.2143,170.3926,81.8892,278.2237,0.00066216,0.0001027,0.0,0 STARLINK-4578,1 53965U 22125B   24089.94914977  .00010270  00000-0  66216-3 0  9997,2 53965  53.2143 170.3926 0001203  81.8892 278.2237 15.08853117 82176,6917.84,95.437,540.538,538.873,0.0
53965.0,STARLINK-4578,PAYLOAD,2024-03-30 05:08:19,15.08840852,0.0001693,53.2165,169.2031,78.7233,281.3949,5.9799e-05,6.64e-06,0.0,0 STARLINK-4578,1 53965U 22125B   24090.21411263  .00000664  00000-0  59799-4 0  9994,2 53965  53.2165 169.2031 0001693  78.7233 281.3949 15.08840852 82280,6917.878,95.438,540.914,538.572,0.0
53965.0,STARLINK-4578,PAYLOAD,2024-03-30 11:29:51,15.08846572,0.0001471,53.2154,168.0141,78.0875,282.0282,0.00034451,5.2e-05,0.0,0 STARLINK-4578,1 53965U 22125B   24090.47907087  .00005200  00000-0  34451-3 0  9994,2 53965  53.2154 168.0141 0001471  78.0875 282.0282 15.08846572 82256,6917.86,95.437,540.743,538.708,0.0
53965.0,STARLINK-4578,PAYLOAD,2024-03-30 22:37:33,15.08846795,0.0001498,53.2134,165.9334,71.6808,288.4347,0.00076236,0.00011868,0.0,0 STARLINK-4578,1 53965U 22125B   24090.94275274  .00011868  00000-0  76236-3 0  9996,2 53965  53.2134 165.9334 0001498  71.6808 288.4347 15.08846795 82325,6917.86,95.437,540.761,538.688,0.0
53965.0,STARLINK-4578,PAYLOAD,2024-03-31 11:20:38,15.08850141,0.0001592,53.2159,163.5541,83.9754,276.142,0.00029902,4.475e-05,0.0,0 STARLINK-4578,1 53965U 22125B   24091.47267119  .00004475  00000-0  29902-3 0  9998,2 53965  53.2159 163.5541 0001592  83.9754 276.1420 15.08850141 82479,6917.849,95.437,540.816,538.613,0.0
53965.0,STARLINK-4578,PAYLOAD,2024-03-31 14:31:24,15.08849677,0.0001659,53.216,162.959,85.81,274.3081,0.00021525,3.14e-05,0.0,0 STARLINK-4578,1 53965U 22125B   24091.60514987  .00003140  00000-0  21525-3 0  9992,2 53965  53.2160 162.9590 0001659  85.8100 274.3081 15.08849677 82428,6917.851,95.437,540.863,538.568,0.0
53965.0,STARLINK-4578,PAYLOAD,2024-04-01 04:49:53,15.08848279,0.0001666,53.2168,160.2821,83.9107,276.2075,0.00030038,4.497e-05,0.0,0 STARLINK-4578,1 53965U 22125B   24092.20130963  .00004497  00000-0  30038-3 0  9992,2 53965  53.2168 160.2821 0001666  83.9107 276.2075 15.08848279 82586,6917.855,95.437,540.873,538.568,0.0
53965.0,STARLINK-4578,PAYLOAD,2024-04-01 11:11:25,15.08859441,0.0001677,53.2158,159.0922,83.6267,276.4916,0.00037887,5.75e-05,0.0,0 STARLINK-4578,1 53965U 22125B   24092.46626302  .00005750  00000-0  37887-3 0  9999,2 53965  53.2158 159.0922 0001677  83.6267 276.4916 15.08859441 82555,6917.821,95.436,540.846,538.526,0.0
53965.0,STARLINK-4578,PAYLOAD,2024-04-01 20:43:44,15.08835622,0.000163,53.2163,157.3084,91.5031,268.6148,-0.00013875,-2.495e-05,0.0,0 STARLINK-4578,1 53965U 22125B   24092.86370838 -.00002495  00000-0 -13875-3 0  9999,2 53965  53.2163 157.3084 0001630  91.5031 268.6148 15.08835622 82686,6917.894,95.438,540.886,538.631,0.0
53965.0,STARLINK-4578,PAYLOAD,2024-04-02 11:02:12,15.08844878,0.0001621,53.2161,154.6324,90.5422,269.5756,4.0312e-05,3.54e-06,0.0,0 STARLINK-4578,1 53965U 22125B   24093.45986443  .00000354  00000-0  40312-4 0  9997,2 53965  53.2161 154.6324 0001621  90.5422 269.5756 15.08844878 82772,6917.865,95.437,540.852,538.609,0.0
53965.0,STARLINK-4578,PAYLOAD,2024-04-02 20:34:31,15.08837617,0.0001505,53.2157,152.8488,90.5478,269.5687,1.8453e-05,6e-08,0.0,0 STARLINK-4578,1 53965U 22125B   24093.85730664  .00000006  00000-0  18453-4 0  9998,2 53965  53.2157 152.8488 0001505  90.5478 269.5687 15.08837617 82765,6917.888,95.438,540.794,538.712,0.0
53965.0,STARLINK-4578,PAYLOAD,2024-04-03 12:28:23,15.08828553,0.0001562,53.2163,149.8755,94.9412,265.1758,-0.00011786,-2.163e-05,0.0,0 STARLINK-4578,1 53965U 22125B   24094.51971514 -.00002163  00000-0 -11786-3 0  9992,2 53965  53.2163 149.8755 0001562  94.9412 265.1758 15.08828553 82933,6917.915,95.438,540.861,538.7,0.0
53965.0,STARLINK-4578,PAYLOAD,2024-04-03 20:25:19,15.08833663,0.0001544,53.2165,148.3888,99.8314,260.2852,7.3148e-05,8.76e-06,0.0,0 STARLINK-4578,1 53965U 22125B   24094.85091577  .00000876  00000-0  73148-4 0  9999,2 53965  53.2165 148.3888 0001544  99.8314 260.2852 15.08833663 82918,6917.9,95.438,540.833,538.697,0.0
53965.0,STARLINK-4578,PAYLOAD,2024-04-04 10:43:47,15.08839968,0.0001604,53.2164,145.7136,98.3087,261.8087,0.00024253,3.574e-05,0.0,0 STARLINK-4578,1 53965U 22125B   24095.44707643  .00003574  00000-0  24253-3 0  9993,2 53965  53.2164 145.7136 0001604  98.3087 261.8087 15.08839968 83071,6917.88,95.438,540.855,538.636,0.0
53965.0,STARLINK-4578,PAYLOAD,2024-04-04 20:16:06,15.08841329,0.0001581,53.2167,143.9289,94.733,265.3843,0.00021984,3.213e-05,0.0,0 STARLINK-4578,1 53965U 22125B   24095.84451659  .00003213  00000-0  21984-3 0  9998,2 53965  53.2167 143.9289 0001581  94.7330 265.3843 15.08841329 83060,6917.876,95.437,540.835,538.648,0.0
53965.0,STARLINK-4578,PAYLOAD,2024-04-05 12:09:57,15.08844374,0.0001509,53.2155,140.9541,87.1588,272.9577,0.00023252,3.415e-05,0.0,0 STARLINK-4578,1 53965U 22125B   24096.50691665  .00003415  00000-0  23252-3 0  9999,2 53965  53.2155 140.9541 0001509  87.1588 272.9577 15.08844374 83236,6917.867,95.437,540.776,538.688,0.0
53965.0,STARLINK-4578,PAYLOAD,2024-04-06 08:49:58,15.08842003,0.0001537,53.2153,137.0885,90.103,270.0138,8.7452e-05,1.104e-05,0.0,0 STARLINK-4578,1 53965U 22125B   24097.36803801  .00001104  00000-0  87452-4 0  9997,2 53965  53.2153 137.0885 0001537  90.1030 270.0138 15.08842003 83362,6917.874,95.437,540.803,538.676,0.0
53965.0,STARLINK-4578,PAYLOAD,2024-04-06 19:57:40,15.08841099,0.0001473,53.215,135.0068,89.9915,270.1246,5.4172e-05,5.74e-06,0.0,0 STARLINK-4578,1 53965U 22125B   24097.83171843  .00000574  00000-0  54172-4 0  9996,2 53965  53.2150 135.0068 0001473  89.9915 270.1246 15.08841099 83362,6917.877,95.437,540.761,538.723,0.0
53965.0,STARLINK-4578,PAYLOAD,2024-04-07 08:40:45,15.08841365,0.0001511,53.216,132.6266,95.8508,264.2656,6.6097e-05,7.64e-06,0.0,0 STARLINK-4578,1 53965U 22125B   24098.36163896  .00000764  00000-0  66097-4 0  9994,2 53965  53.2160 132.6266 0001511  95.8508 264.2656 15.08841365 83447,6917.876,95.437,540.787,538.696,0.0
53965.0,STARLINK-4578,PAYLOAD,2024-04-07 19:48:27,15.08839118,0.0001475,53.216,130.5448,96.9304,263.1856,6.3902e-05,7.29e-06,0.0,0 STARLINK-4578,1 53965U 22125B   24098.82532037  .00000729  00000-0  63902-4 0  9995,2 53965  53.2160 130.5448 0001475  96.9304 263.1856 15.08839118 83589,6917.883,95.438,540.768,538.728,0.0
53965.0,STARLINK-4578,PAYLOAD,2024-04-08 08:31:32,15.08840885,0.0001478,53.2162,128.1658,97.4732,262.6428,9.0881e-05,1.159e-05,0.0,0 STARLINK-4578,1 53965U 22125B   24099.35523923  .00001159  00000-0  90881-4 0  9992,2 53965  53.2162 128.1658 0001478  97.4732 262.6428 15.08840885 83594,6917.878,95.437,540.765,538.72,0.0
53965.0,STARLINK-4578,PAYLOAD,2024-04-09 02:00:47,15.08840504,0.0001439,53.2162,124.8949,96.7351,263.3805,8.5134e-05,1.067e-05,0.0,0 STARLINK-4578,1 53965U 22125B   24100.08387992  .00001067  00000-0  85134-4 0  9992,2 53965  53.2162 124.8949 0001439  96.7351 263.3805 15.08840504 83771,6917.879,95.438,540.739,538.748,0.0
53965.0,STARLINK-4578,PAYLOAD,2024-04-09 08:22:19,15.08842323,0.0001455,53.2164,123.7059,96.5748,263.5409,9.5127e-05,1.226e-05,0.0,0 STARLINK-4578,1 53965U 22125B   24100.34883834  .00001226  00000-0  95127-4 0  9997,2 53965  53.2164 123.7059 0001455  96.5748 263.5409 15.08842323 83749,6917.873,95.437,540.745,538.732,0.0
53965.0,STARLINK-4578,PAYLOAD,2024-04-09 17:54:38,15.08840624,0.0001469,53.2163,121.9214,97.0236,263.0923,7.6966e-05,9.37e-06,0.0,0 STARLINK-4578,1 53965U 22125B   24100.74627996  .00000937  00000-0  76966-4 0  9994,2 53965  53.2163 121.9214 0001469  97.0236 263.0923 15.08840624 83809,6917.878,95.438,540.76,538.727,0.0
53965.0,STARLINK-4578,PAYLOAD,2024-04-10 05:02:20,15.08840107,0.0001509,53.2168,119.8396,94.4691,265.6473,6.6566e-05,7.72e-06,0.0,0 STARLINK-4578,1 53965U 22125B   24101.20996080  .00000772  00000-0  66566-4 0  9991,2 53965  53.2168 119.8396 0001509  94.4691 265.6473 15.08840107 83941,6917.88,95.438,540.789,538.701,0.0
53965.0,STARLINK-4578,PAYLOAD,2024-04-10 08:13:06,15.08842062,0.000149,53.2168,119.2459,94.4736,265.6426,7.5615e-05,9.16e-06,0.0,0 STARLINK-4578,1 53965U 22125B   24101.34243916  .00000916  00000-0  75615-4 0  9994,2 53965  53.2168 119.2459 0001490  94.4736 265.6426 15.08842062 83898,6917.874,95.437,540.77,538.708,0.0
53965.0,STARLINK-4578,PAYLOAD,2024-04-10 17:45:25,15.08837788,0.0001442,53.2164,117.4622,95.1092,265.0065,4.1137e-05,3.67e-06,0.0,0 STARLINK-4578,1 53965U 22125B   24101.73988259  .00000367  00000-0  41137-4 0  9995,2 53965  53.2164 117.4622 0001442  95.1092 265.0065 15.08837788 83955,6917.887,95.438,540.75,538.755,0.0
53965.0,STARLINK-4578,PAYLOAD,2024-04-11 04:53:08,15.08832737,0.000152,53.2168,115.3815,99.6994,260.4169,-9.3391e-06,-4.37e-06,0.0,0 STARLINK-4578,1 53965U 22125B   24102.20356850 -.00000437  00000-0 -93391-5 0  9994,2 53965  53.2168 115.3815 0001520  99.6994 260.4169 15.08832737 84096,6917.903,95.438,540.819,538.716,0.0
